[{"OBJECT_NAME":"STARLINK-34710","OBJECT_ID":"2025-190Q","EPOCH":"2026-03-09T13:54:23.343840","MEAN_MOTION":15.30180461,"ECCENTRICITY":0.0001274,"INCLINATION":53.1593,"RA_OF_ASC_NODE":169.0283,"ARG_OF_PERICENTER":74.5628,"MEAN_ANOMALY":285.5514,"EPHEMERIS_TYPE":0,"CLASSIFICATION_TYPE":"U","NORAD_CAT_ID":65365,"ELEMENT_SET_NO":999,"REV_AT_EPOCH":2926,"BSTAR":0.00051091,"MEAN_MOTION_DOT":0.00014793,"MEAN_MOTION_DDOT":0},{"OBJECT_NAME":"CZ-4C R\/B","OBJECT_ID":"2023-123B","EPOCH":"2026-03-09T21:44:40.426944","MEAN_MOTION":15.36684191,"ECCENTRICITY":0.00627803,"INCLINATION":97.9677,"RA_OF_ASC_NODE":50.672,"ARG_OF_PERICENTER":67.0775,"MEAN_ANOMALY":293.7077,"EPHEMERIS_TYPE":0,"CLASSIFICATION_TYPE":"U","NORAD_CAT_ID":57655,"ELEMENT_SET_NO":999,"REV_AT_EPOCH":14181,"BSTAR":0.00052203987,"MEAN_MOTION_DOT":0.00019917,"MEAN_MOTION_DDOT":0}]
